[{"OBJECT_NAME":"STARLINK-34457","OBJECT_ID":"2025-126AA","EPOCH":"2026-03-09T22:04:11.751744","MEAN_MOTION":14.98334339,"ECCENTRICITY":0.00026202,"INCLINATION":70.0031,"RA_OF_ASC_NODE":33.9814,"ARG_OF_PERICENTER":276.2497,"MEAN_ANOMALY":83.8364,"EPHEMERIS_TYPE":0,"CLASSIFICATION_TYPE":"U","NORAD_CAT_ID":64368,"ELEMENT_SET_NO":999,"REV_AT_EPOCH":4071,"BSTAR":0.00046824394,"MEAN_MOTION_DOT":5.499e-5,"MEAN_MOTION_DDOT":0},{"OBJECT_NAME":"KUIPER-00232","OBJECT_ID":"2025-301R","EPOCH":"2026-03-09T22:00:01.999584","MEAN_MOTION":15.06812029,"ECCENTRICITY":0.0002965,"INCLINATION":51.8873,"RA_OF_ASC_NODE":65.5535,"ARG_OF_PERICENTER":139.5556,"MEAN_ANOMALY":115.4886,"EPHEMERIS_TYPE":0,"CLASSIFICATION_TYPE":"U","NORAD_CAT_ID":67148,"ELEMENT_SET_NO":999,"REV_AT_EPOCH":493,"BSTAR":-0.072865786,"MEAN_MOTION_DOT":-0.01020247,"MEAN_MOTION_DDOT":0}]
